[{"OBJECT_NAME":"STARLINK-31325","OBJECT_ID":"2024-044P","EPOCH":"2026-03-09T19:10:16.231872","MEAN_MOTION":15.27565632,"ECCENTRICITY":3.939e-5,"INCLINATION":42.9967,"RA_OF_ASC_NODE":106.2959,"ARG_OF_PERICENTER":343.054,"MEAN_ANOMALY":17.0298,"EPHEMERIS_TYPE":0,"CLASSIFICATION_TYPE":"U","NORAD_CAT_ID":59165,"ELEMENT_SET_NO":999,"REV_AT_EPOCH":11358,"BSTAR":-5.5766285e-5,"MEAN_MOTION_DOT":-1.795e-5,"MEAN_MOTION_DDOT":0},{"OBJECT_NAME":"NUSAT-50 (NANCY ROMAN)","OBJECT_ID":"2024-149AB","EPOCH":"2026-03-09T19:15:16.765632","MEAN_MOTION":15.29713355,"ECCENTRICITY":0.00025229,"INCLINATION":97.3817,"RA_OF_ASC_NODE":150.7693,"ARG_OF_PERICENTER":238.0469,"MEAN_ANOMALY":122.0527,"EPHEMERIS_TYPE":0,"CLASSIFICATION_TYPE":"U","NORAD_CAT_ID":60493,"ELEMENT_SET_NO":999,"REV_AT_EPOCH":8693,"BSTAR":0.0004225155,"MEAN_MOTION_DOT":0.00012094,"MEAN_MOTION_DDOT":0}]
